{
  "type": "FeatureCollection",
  "features": [
    {
      "type": "Feature",
      "properties": {
        "norad_id": 34079,
        "name": "IRIDIUM 33 DEB",
        "group": "iridium-33-debris",
        "lat": 33.190234381048455,
        "lon": -175.8206790494802,
        "alt_km": 619.1317623592249,
        "timestamp": "2025-12-17T09:00:17.533026+00:00",
        "meta_object_name": "IRIDIUM 33 DEB",
        "meta_object_id": "1997-051CN",
        "meta_epoch": "2025-12-16T22:51:10.442880",
        "meta_mean_motion": 14.8363878,
        "meta_eccentricity": 0.00050967,
        "meta_inclination": 86.3774,
        "meta_ra_of_asc_node": 6.7468,
        "meta_arg_of_pericenter": 353.7834,
        "meta_mean_anomaly": 55.0377,
        "meta_ephemeris_type": 0,
        "meta_classification_type": "U",
        "meta_norad_cat_id": 34079,
        "meta_element_set_no": 999,
        "meta_rev_at_epoch": 89040,
        "meta_bstar": 0.0013326722,
        "meta_mean_motion_dot": 0.00011028,
        "meta_mean_motion_ddot": 0,
        "tle_line1": "1 34079U 97051CN  25350.95220420  .00011028  00000+0  13327-2 0  9993",
        "tle_line2": "2 34079  86.3774   6.7468 0005096 353.7834  55.0377 14.83638780890400"
      },
      "geometry": {
        "type": "Point",
        "coordinates": [
          -175.8206790494802,
          33.190234381048455
        ]
      }
    },
    {
      "type": "Feature",
      "properties": {
        "norad_id": 34088,
        "name": "IRIDIUM 33 DEB",
        "group": "iridium-33-debris",
        "lat": 9.551588926264873,
        "lon": 29.203903916259353,
        "alt_km": 598.5176212615597,
        "timestamp": "2025-12-17T09:00:17.533036+00:00",
        "meta_object_name": "IRIDIUM 33 DEB",
        "meta_object_id": "1997-051CX",
        "meta_epoch": "2025-12-16T15:49:03.645408",
        "meta_mean_motion": 14.91567961,
        "meta_eccentricity": 0.00061162,
        "meta_inclination": 86.3848,
        "meta_ra_of_asc_node": 28.9234,
        "meta_arg_of_pericenter": 163.7337,
        "meta_mean_anomaly": 323.1373,
        "meta_ephemeris_type": 0,
        "meta_classification_type": "U",
        "meta_norad_cat_id": 34088,
        "meta_element_set_no": 999,
        "meta_rev_at_epoch": 88800,
        "meta_bstar": 0.001784804,
        "meta_mean_motion_dot": 0.00017948,
        "meta_mean_motion_ddot": 0,
        "tle_line1": "1 34088U 97051CX  25350.65906997  .00017948  00000+0  17848-2 0  9999",
        "tle_line2": "2 34088  86.3848  28.9234 0006116 163.7337 323.1373 14.91567961888009"
      },
      "geometry": {
        "type": "Point",
        "coordinates": [
          29.203903916259353,
          9.551588926264873
        ]
      }
    },
    {
      "type": "Feature",
      "properties": {
        "norad_id": 34091,
        "name": "IRIDIUM 33 DEB",
        "group": "iridium-33-debris",
        "lat": 37.32372527086541,
        "lon": 67.5062858116425,
        "alt_km": 631.9324591081731,
        "timestamp": "2025-12-17T09:00:17.533046+00:00",
        "meta_object_name": "IRIDIUM 33 DEB",
        "meta_object_id": "1997-051DA",
        "meta_epoch": "2025-12-16T11:46:18.543360",
        "meta_mean_motion": 14.82111628,
        "meta_eccentricity": 0.00334463,
        "meta_inclination": 86.3424,
        "meta_ra_of_asc_node": 65.116,
        "meta_arg_of_pericenter": 279.6174,
        "meta_mean_anomaly": 80.127,
        "meta_ephemeris_type": 0,
        "meta_classification_type": "U",
        "meta_norad_cat_id": 34091,
        "meta_element_set_no": 999,
        "meta_rev_at_epoch": 87922,
        "meta_bstar": 0.0036492402,
        "meta_mean_motion_dot": 0.00029418,
        "meta_mean_motion_ddot": 0,
        "tle_line1": "1 34091U 97051DA  25350.49049240  .00029418  00000+0  36492-2 0  9995",
        "tle_line2": "2 34091  86.3424  65.1160 0033446 279.6174  80.1270 14.82111628879221"
      },
      "geometry": {
        "type": "Point",
        "coordinates": [
          67.5062858116425,
          37.32372527086541
        ]
      }
    },
    {
      "type": "Feature",
      "properties": {
        "norad_id": 34097,
        "name": "IRIDIUM 33 DEB",
        "group": "iridium-33-debris",
        "lat": -37.92065327969751,
        "lon": -177.66981294767166,
        "alt_km": 818.985239073746,
        "timestamp": "2025-12-17T09:00:17.533056+00:00",
        "meta_object_name": "IRIDIUM 33 DEB",
        "meta_object_id": "1997-051DG",
        "meta_epoch": "2025-12-16T23:37:09.206112",
        "meta_mean_motion": 14.3481211,
        "meta_eccentricity": 0.00821529,
        "meta_inclination": 86.2005,
        "meta_ra_of_asc_node": 359.5351,
        "meta_arg_of_pericenter": 348.3382,
        "meta_mean_anomaly": 11.5908,
        "meta_ephemeris_type": 0,
        "meta_classification_type": "U",
        "meta_norad_cat_id": 34097,
        "meta_element_set_no": 999,
        "meta_rev_at_epoch": 87180,
        "meta_bstar": 0.0011716102,
        "meta_mean_motion_dot": 3.47e-05,
        "meta_mean_motion_ddot": 0,
        "tle_line1": "1 34097U 97051DG  25350.98413433  .00003470  00000+0  11716-2 0  9996",
        "tle_line2": "2 34097  86.2005 359.5351 0082152 348.3382  11.5908 14.34812110871809"
      },
      "geometry": {
        "type": "Point",
        "coordinates": [
          -177.66981294767166,
          -37.92065327969751
        ]
      }
    },
    {
      "type": "Feature",
      "properties": {
        "norad_id": 34145,
        "name": "IRIDIUM 33 DEB",
        "group": "iridium-33-debris",
        "lat": -72.74728479245017,
        "lon": 162.78243502902626,
        "alt_km": 797.7735813339687,
        "timestamp": "2025-12-17T09:00:17.533067+00:00",
        "meta_object_name": "IRIDIUM 33 DEB",
        "meta_object_id": "1997-051DY",
        "meta_epoch": "2025-12-16T23:30:45.812160",
        "meta_mean_motion": 14.42319443,
        "meta_eccentricity": 0.00557597,
        "meta_inclination": 86.2113,
        "meta_ra_of_asc_node": 330.6385,
        "meta_arg_of_pericenter": 80.3876,
        "meta_mean_anomaly": 280.3618,
        "meta_ephemeris_type": 0,
        "meta_classification_type": "U",
        "meta_norad_cat_id": 34145,
        "meta_element_set_no": 999,
        "meta_rev_at_epoch": 87699,
        "meta_bstar": 0.00087533026,
        "meta_mean_motion_dot": 2.964e-05,
        "meta_mean_motion_ddot": 0,
        "tle_line1": "1 34145U 97051DY  25350.97969690  .00002964  00000+0  87533-3 0  9998",
        "tle_line2": "2 34145  86.2113 330.6385 0055759  80.3876 280.3618 14.42319443876993"
      },
      "geometry": {
        "type": "Point",
        "coordinates": [
          162.78243502902626,
          -72.74728479245017
        ]
      }
    },
    {
      "type": "Feature",
      "properties": {
        "norad_id": 34146,
        "name": "IRIDIUM 33 DEB",
        "group": "iridium-33-debris",
        "lat": 3.3165918569842443,
        "lon": -12.031049170727828,
        "alt_km": 748.3630334023819,
        "timestamp": "2025-12-17T09:00:17.533077+00:00",
        "meta_object_name": "IRIDIUM 33 DEB",
        "meta_object_id": "1997-051DZ",
        "meta_epoch": "2025-12-16T23:20:15.016128",
        "meta_mean_motion": 14.49078294,
        "meta_eccentricity": 0.00259227,
        "meta_inclination": 86.2833,
        "meta_ra_of_asc_node": 347.931,
        "meta_arg_of_pericenter": 206.7455,
        "meta_mean_anomaly": 216.6138,
        "meta_ephemeris_type": 0,
        "meta_classification_type": "U",
        "meta_norad_cat_id": 34146,
        "meta_element_set_no": 999,
        "meta_rev_at_epoch": 88168,
        "meta_bstar": 0.00070211231,
        "meta_mean_motion_dot": 2.697e-05,
        "meta_mean_motion_ddot": 0,
        "tle_line1": "1 34146U 97051DZ  25350.97239602  .00002697  00000+0  70211-3 0  9990",
        "tle_line2": "2 34146  86.2833 347.9310 0025922 206.7455 216.6138 14.49078294881682"
      },
      "geometry": {
        "type": "Point",
        "coordinates": [
          -12.031049170727828,
          3.3165918569842443
        ]
      }
    },
    {
      "type": "Feature",
      "properties": {
        "norad_id": 34159,
        "name": "IRIDIUM 33 DEB",
        "group": "iridium-33-debris",
        "lat": -81.26820955807152,
        "lon": -109.17915092326376,
        "alt_km": 752.6234853078158,
        "timestamp": "2025-12-17T09:00:17.533088+00:00",
        "meta_object_name": "IRIDIUM 33 DEB",
        "meta_object_id": "1997-051EN",
        "meta_epoch": "2025-12-16T16:45:48.595104",
        "meta_mean_motion": 14.385039,
        "meta_eccentricity": 0.00259254,
        "meta_inclination": 86.3502,
        "meta_ra_of_asc_node": 46.5535,
        "meta_arg_of_pericenter": 273.7892,
        "meta_mean_anomaly": 86.0342,
        "meta_ephemeris_type": 0,
        "meta_classification_type": "U",
        "meta_norad_cat_id": 34159,
        "meta_element_set_no": 999,
        "meta_rev_at_epoch": 88016,
        "meta_bstar": 0.00035210436,
        "meta_mean_motion_dot": 1.099e-05,
        "meta_mean_motion_ddot": 0,
        "tle_line1": "1 34159U 97051EN  25350.69847911  .00001099  00000+0  35210-3 0  9996",
        "tle_line2": "2 34159  86.3502  46.5535 0025925 273.7892  86.0342 14.38503900880166"
      },
      "geometry": {
        "type": "Point",
        "coordinates": [
          -109.17915092326376,
          -81.26820955807152
        ]
      }
    }
  ]
}